ISS (ZARYA)             
1 25544U 98067A   26055.86355973  .00009683  00000+0  18823-3 0  9994
2 25544  51.6318 135.7592 0008386 130.0533 230.1192 15.48271528554340
CSS (TIANHE)            
1 48274U 21035A   26055.91463741  .00012229  00000+0  15030-3 0  9996
2 48274  41.4667 285.8590 0005551 189.8936 170.1794 15.60082550275614
ISS (NAUKA)             
1 49044U 21066A   26055.86355973  .00009683  00000+0  18823-3 0  9990
2 49044  51.6318 135.7592 0008386 130.0533 230.1192 15.48271528230443
FREGAT DEB              
1 49271U 11037PF  26055.13832825  .00030636  00000+0  46705-1 0  9995
2 49271  51.6512 341.3641 0948507  28.2793 336.6367 12.39303842211015
CSS (WENTIAN)           
1 53239U 22085A   26055.91463741  .00012229  00000+0  15030-3 0  9999
2 53239  41.4667 285.8590 0005551 189.8936 170.1794 15.60082550173843
CSS (MENGTIAN)          
1 54216U 22143A   26055.91463741  .00012229  00000+0  15030-3 0  9990
2 54216  41.4667 285.8590 0005551 189.8936 170.1794 15.60082550158640
PROGRESS-MS 31          
1 64751U 25146A   26055.86355973  .00009683  00000+0  18823-3 0  9995
2 64751  51.6318 135.7592 0008386 130.0533 230.1192 15.48271528  6750
TIANZHOU-9              
1 64786U 25149A   26055.91463741  .00012229  00000+0  15030-3 0  9992
2 64786  41.4667 285.8590 0005551 189.8936 170.1794 15.60082550255304
DRAGON CRS-33           
1 65304U 25186A   26055.86355973  .00009683  00000+0  18823-3 0  9994
2 65304  51.6318 135.7592 0008386 130.0533 230.1192 15.48271528   119
PROGRESS-MS 32          
1 65586U 25204A   26055.86355973  .00009683  00000+0  18823-3 0  9997
2 65586  51.6318 135.7592 0008386 130.0533 230.1192 15.48271528   278
CYGNUS NG-23            
1 65616U 25208A   26055.86355973  .00009683  00000+0  18823-3 0  9995
2 65616  51.6318 135.7592 0008386 130.0533 230.1192 15.48271528   227
ISS OBJECT XK           
1 65731U 98067XK  26055.56340396  .00468529  10044-3  11270-2 0  9995
2 65731  51.6189 116.3914 0007497  15.0336 345.0894 15.95842562 24796
